GPS BIIA-23 (PRN 18)    
1 22877U 93068A   19113.57393571 -.00000045  00000-0  00000-0 0  9997
2 22877  54.6487  70.7860 0150070  79.0995 157.8624  2.00559323186751
GPS BIIR-2  (PRN 13)    
1 24876U 97035A   19112.64334587  .00000002  00000-0  00000-0 0  9997
2 24876  55.4611 200.6405 0033557  74.7969 285.6217  2.00564669159557
GPS BIIR-3  (PRN 11)    
1 25933U 99055A   19112.99702193 -.00000084  00000-0  00000-0 0  9997
2 25933  52.0931  48.2229 0163611 107.8093  74.6826  2.00560232143187
GPS BIIR-4  (PRN 20)    
1 26360U 00025A   19113.67888641  .00000008  00000-0  00000-0 0  9995
2 26360  53.3142 126.7098 0042036 136.4210 225.0051  2.00562009138890
GPS BIIR-5  (PRN 28)    
1 26407U 00040A   19113.71411185 -.00000060  00000-0  00000-0 0  9993
2 26407  56.2948 318.7262 0192960 275.8986  84.8373  2.00560691137571
GPS BIIR-6  (PRN 14)    
1 26605U 00071A   19113.83809951 -.00000010  00000-0  00000-0 0  9997
2 26605  55.0351 198.0631 0107085 249.1030 112.9155  2.00561264135175
GPS BIIR-8  (PRN 16)    
1 27663U 03005A   19113.29527082 -.00000061  00000-0  00000-0 0  9990
2 27663  56.3558 318.5145 0106954  31.4796 145.7864  2.00577164118928
GPS BIIR-9  (PRN 21)    
1 27704U 03010A   19114.45189306 -.00000043  00000-0  00000+0 0  9993
2 27704  54.3239  70.2364 0249295 276.8128 341.7708  2.00554270117739
GPS BIIR-10 (PRN 22)    
1 28129U 03058A   19113.33184508  .00000008  00000-0  00000-0 0  9993
2 28129  53.1260 129.5194 0074681 281.4770  77.7191  2.00545712112403
GPS BIIR-11 (PRN 19)    
1 28190U 04009A   19113.70734362 -.00000103  00000-0  00000-0 0  9995
2 28190  56.2585  19.2809 0093233  78.9564 190.2765  2.00568943110606
GPS BIIR-12 (PRN 23)    
1 28361U 04023A   19113.59093340 -.00000008  00000-0  00000-0 0  9996
2 28361  54.0478 192.4968 0132906 230.5456 227.6962  2.00571866108665
GPS BIIR-13 (PRN 02)    
1 28474U 04045A   19113.70700624 -.00000046  00000-0  00000-0 0  9990
2 28474  54.6825  69.9984 0191535 259.9786 284.5758  2.00561233106055
GPS BIIRM-1 (PRN 17)    
1 28874U 05038A   19113.70637685 -.00000104  00000-0  00000-0 0  9998
2 28874  56.3840  16.6270 0130945 262.0810  27.8538  2.00557504 99458
GPS BIIRM-2 (PRN 31)    
1 29486U 06042A   19113.46758803 -.00000010  00000-0  00000-0 0  9999
2 29486  55.0244 255.2313 0092157 358.7228  39.8970  2.00572259 92055
GPS BIIRM-3 (PRN 12)    
1 29601U 06052A   19113.36041210 -.00000059  00000-0  00000-0 0  9998
2 29601  56.3354 317.4285 0074353  60.3576 300.3971  2.00565655 91024
GPS BIIRM-4 (PRN 15)    
1 32260U 07047A   19113.17283661 -.00000003  00000-0  00000-0 0  9994
2 32260  53.1709 188.2529 0111119  43.3675 317.5664  2.00563201 84460
GPS BIIRM-5 (PRN 29)    
1 32384U 07062A   19113.90995878 -.00000104  00000-0  00000-0 0  9991
2 32384  56.4670  17.2542 0007350  93.3913 215.9879  2.00553413 83177
GPS BIIRM-6 (PRN 07)    
1 32711U 08012A   19113.57695203 -.00000010  00000-0  00000-0 0  9999
2 32711  54.7635 254.4298 0126816 219.3964 139.6458  2.00572735 81396
GPS BIIRM-8 (PRN 05)    
1 35752U 09043A   19113.29632563  .00000012  00000-0  00000-0 0  9992
2 35752  54.4105 132.1241 0054406  38.4506 143.4247  2.00563657 70974
GPS BIIF-1  (PRN 25)    
1 36585U 10022A   19113.14929932 -.00000057  00000-0  00000-0 0  9999
2 36585  55.6165 313.7759 0082500  49.7850 128.9953  2.00557947 65209
GPS BIIF-2  (PRN 01)    
1 37753U 11036A   19113.64138497 -.00000037  00000-0  00000-0 0  9994
2 37753  55.8798  73.8990 0085555  38.4610 222.1210  2.00566012 56895
GPS BIIF-3  (PRN 24)    
1 38833U 12053A   19112.76816377 -.00000013  00000-0  00000-0 0  9990
2 38833  53.7980 250.7178 0081529  33.4413 327.0381  2.00557779 47155
GPS BIIF-4  (PRN 27)    
1 39166U 13023A   19113.12740272 -.00000104  00000-0  00000-0 0  9990
2 39166  56.0681  13.4434 0069212  25.2290 335.1376  2.00568008 43499
GPS BIIF-5  (PRN 30)    
1 39533U 14008A   19113.62060830 -.00000012  00000-0  00000-0 0  9990
2 39533  53.9306 256.0714 0039548 191.6990 168.1785  2.00571879 37320
GPS BIIF-6  (PRN 06)    
1 39741U 14026A   19113.40828665 -.00000039  00000-0  00000-0 0  9994
2 39741  55.8598  73.4337 0018138 293.2297  66.5513  2.00576188 36156
GPS BIIF-7  (PRN 09)    
1 40105U 14045A   19113.49822013 -.00000006  00000-0  00000-0 0  9995
2 40105  54.5742 192.7748 0010652 102.8970 257.2807  2.00561091 33728
GPS BIIF-8  (PRN 03)    
1 40294U 14068A   19112.86321413  .00000015  00000-0  00000-0 0  9996
2 40294  55.1622 133.6520 0019775  27.7334 332.4149  2.00548107 32814
GPS BIIF-9  (PRN 26)    
1 40534U 15013A   19113.00930003 -.00000058  00000-0  00000-0 0  9990
2 40534  54.5461 312.1809 0037064   5.9127 354.1378  2.00573171 29436
GPS BIIF-10  (PRN 08)   
1 40730U 15033A   19113.16628517 -.00000105  00000-0  00000-0 0  9994
2 40730  55.5936  12.8066 0044698 342.2680  17.6073  2.00557646 27624
GPS BIIF-11  (PRN 10)   
1 41019U 15062A   19113.71454098  .00000014  00000-0  00000-0 0  9997
2 41019  55.1642 133.4324 0046063 207.9237 151.8681  2.00564774 25450
GPS BIIF-12  (PRN 32)   
1 41328U 16007A   19112.31569407  .00000006  00000-0  00000+0 0  9996
2 41328  54.8191 193.1967 0030740 218.5628 141.2763  2.00574246 23481
